ONEWEB-0018             
1 45434U 20020L   24365.59827934 -.00000374  00000+0 -10925-2 0  9995
2 45434  87.8909 127.4001 0001447 106.9945 253.1341 13.11414458232691
ONEWEB-0083             
1 45435U 20020M   24365.74070776 -.00000073  00000+0 -24210-3 0  9996
2 45435  87.8909 127.3547 0001585 106.3790 253.7512 13.11413622232756
ONEWEB-0095             
1 45436U 20020N   24365.73234305 -.00007270  00000+0 -20552-1 0  9995
2 45436  87.8911 127.3865 0002146  94.5136 265.6237 13.11454310232754
ONEWEB-0092             
1 45437U 20020P   24365.62795475  .00000203  00000+0  53673-3 0  9993
2 45437  87.8910 127.3937 0001769  98.3340 261.7989 13.11419403232859
ONEWEB-0085             
1 45438U 20020Q   24365.58133536  .00000270  00000+0  72558-3 0  9990
2 45438  87.8911 127.4111 0001497 104.5147 255.6147 13.11414277232738
ONEWEB-0096             
1 45439U 20020R   24365.74239728 -.00000089  00000+0 -28755-3 0  9999
2 45439  87.8910 127.3472 0001293 101.4931 258.6342 13.11413914232746
ONEWEB-0037             
1 45440U 20020S   24365.64747044  .00000548  00000+0  15096-2 0  9996
2 45440  87.8904 127.3383 0001616 101.3813 258.7496 13.11419134232762
ONEWEB-0042             
1 45441U 20020T   24365.57950116  .00000377  00000+0  10271-2 0  9995
2 45441  87.8907 127.3915 0001471 104.0076 256.1216 13.11416799232730
